NORAD_CAT_ID,OBJECT_NAME,OBJECT_TYPE,EPOCH,MEAN_MOTION,ECCENTRICITY,INCLINATION,RA_OF_ASC_NODE,ARG_OF_PERICENTER,MEAN_ANOMALY,BSTAR,MEAN_MOTION_DOT,MEAN_MOTION_DDOT,TLE_LINE0,TLE_LINE1,TLE_LINE2,SEMIMAJOR_AXIS,PERIOD,APOGEE,PERIGEE,DECAYED
56791.0,STARLINK-5977,PAYLOAD,2024-06-25 23:02:37,14.98332366,0.0002762,70.0001,111.9618,260.876,99.2087,1.8996e-05,1.34e-06,0.0,0 STARLINK-5977,1 56791U 23078AA  24177.96015112  .00000134  00000-0  18996-4 0  9999,2 56791  70.0001 111.9618 0002762 260.8760  99.2087 14.98332366 59555,6950.186,96.107,573.97,570.131,0.0
56791.0,STARLINK-5977,PAYLOAD,2024-06-26 05:27:08,14.98335881,0.0002708,70.0003,111.2887,259.0866,100.9988,6.0835e-05,6.33e-06,0.0,0 STARLINK-5977,1 56791U 23078AA  24178.22718706  .00000633  00000-0  60835-4 0  9991,2 56791  70.0003 111.2887 0002708 259.0866 100.9988 14.98335881 59594,6950.175,96.107,573.922,570.158,0.0
56791.0,STARLINK-5977,PAYLOAD,2024-06-26 23:04:38,14.98327177,0.0002638,70.0006,109.4385,253.7513,106.3356,3.9684e-05,3.81e-06,0.0,0 STARLINK-5977,1 56791U 23078AA  24178.96155218  .00000381  00000-0  39684-4 0  9993,2 56791  70.0006 109.4385 0002638 253.7513 106.3356 14.98327177 59702,6950.202,96.107,573.9,570.233,0.0
56791.0,STARLINK-5977,PAYLOAD,2024-06-27 03:53:02,14.98326297,0.0002728,70.0004,108.9327,266.0616,94.0232,2.6877e-05,2.28e-06,0.0,0 STARLINK-5977,1 56791U 23078AA  24179.16183417  .00000228  00000-0  26877-4 0  9998,2 56791  70.0004 108.9327 0002728 266.0616  94.0232 14.98326297 59990,6950.204,96.107,573.965,570.173,0.0
56791.0,STARLINK-5977,PAYLOAD,2024-06-27 21:30:31,14.98329874,0.0002684,70.0006,107.0815,266.0846,94.0006,-7.0726e-05,-9.37e-06,0.0,0 STARLINK-5977,1 56791U 23078AA  24179.89619562 -.00000937  00000-0 -70726-4 0  9994,2 56791  70.0006 107.0815 0002684 266.0846  94.0006 14.98329874 59847,6950.193,96.107,573.924,570.193,0.0
56791.0,STARLINK-5977,PAYLOAD,2024-06-28 03:55:03,14.98336454,0.0002423,70.0005,106.407,263.4914,96.5969,-8.2391e-05,-1.076e-05,0.0,0 STARLINK-5977,1 56791U 23078AA  24180.16323161 -.00001076  00000-0 -82391-4 0  9999,2 56791  70.0005 106.4070 0002423 263.4914  96.5969 14.98336454 60142,6950.173,96.107,573.722,570.354,0.0
56791.0,STARLINK-5977,PAYLOAD,2024-06-28 11:55:43,14.98343891,0.000261,70.0008,105.5663,264.0632,96.0229,-0.00027701,-3.398e-05,0.0,0 STARLINK-5977,1 56791U 23078AA  24180.49703048 -.00003398  00000-0 -27701-3 0  9993,2 56791  70.0008 105.5663 0002610 264.0632  96.0229 14.98343891 59937,6950.15,96.106,573.829,570.201,0.0
56791.0,STARLINK-5977,PAYLOAD,2024-06-28 21:32:31,14.98331129,0.0002661,70.0002,104.5553,267.1059,92.9796,4.7076e-05,4.69e-06,0.0,0 STARLINK-5977,1 56791U 23078AA  24180.89759068  .00000469  00000-0  47076-4 0  9992,2 56791  70.0002 104.5553 0002661 267.1059  92.9796 14.98331129 59992,6950.189,96.107,573.904,570.205,0.0
56791.0,STARLINK-5977,PAYLOAD,2024-06-29 03:57:03,14.98337198,0.0002551,70.0004,103.8825,265.2617,94.8251,0.00011156,1.239e-05,0.0,0 STARLINK-5977,1 56791U 23078AA  24181.16462454  .00001239  00000-0  11156-3 0  9998,2 56791  70.0004 103.8825 0002551 265.2617  94.8251 14.98337198 60299,6950.171,96.107,573.809,570.263,0.0
56791.0,STARLINK-5977,PAYLOAD,2024-06-29 11:57:46,14.9831276,8.02e-05,70.0002,103.0388,305.2104,54.898,-0.00015602,-1.953e-05,0.0,0 STARLINK-5977,1 56791U 23078AA  24181.49845520 -.00001953  00000-0 -15602-3 0  9998,2 56791  70.0002 103.0388 0000802 305.2104  54.8980 14.98312760 60345,6950.246,96.108,572.669,571.554,0.0
56791.0,STARLINK-5977,PAYLOAD,2024-06-29 23:10:42,14.98310306,0.0002823,70.0003,101.863,266.4725,93.6112,-0.00019196,-2.381e-05,0.0,0 STARLINK-5977,1 56791U 23078AA  24181.96577362 -.00002381  00000-0 -19196-3 0  9994,2 56791  70.0003 101.8630 0002823 266.4725  93.6112 14.98310306 60155,6950.254,96.108,574.081,570.157,0.0
56791.0,STARLINK-5977,PAYLOAD,2024-06-30 11:59:46,14.98321934,0.000291,70.0002,100.516,267.8883,92.1943,-3.6675e-05,-5.3e-06,0.0,0 STARLINK-5977,1 56791U 23078AA  24182.49984641 -.00000530  00000-0 -36675-4 0  9991,2 56791  70.0002 100.5160 0002910 267.8883  92.1943 14.98321934 60239,6950.218,96.108,574.105,570.06,0.0
56791.0,STARLINK-5977,PAYLOAD,2024-06-30 20:00:26,14.98333575,0.0002909,70.0003,99.6751,268.2415,91.841,3.2053e-05,2.9e-06,0.0,0 STARLINK-5977,1 56791U 23078AA  24182.83363807  .00000290  00000-0  32053-4 0  9991,2 56791  70.0003  99.6751 0002909 268.2415  91.8410 14.98333575 60541,6950.182,96.107,574.069,570.025,0.0
56791.0,STARLINK-5977,PAYLOAD,2024-06-30 21:36:34,14.98333581,0.000292,70.0003,99.5067,268.4012,91.6812,3.3044e-05,3.01e-06,0.0,0 STARLINK-5977,1 56791U 23078AA  24182.90039797  .00000301  00000-0  33044-4 0  9991,2 56791  70.0003  99.5067 0002920 268.4012  91.6812 14.98333581 60291,6950.182,96.107,574.076,570.017,0.0
56791.0,STARLINK-5977,PAYLOAD,2024-07-01 04:01:06,14.98340425,0.0002949,70.0,98.833,262.5432,97.5392,6.0021e-05,6.23e-06,0.0,0 STARLINK-5977,1 56791U 23078AA  24183.16743177  .00000623  00000-0  60021-4 0  9996,2 56791  70.0000  98.8330 0002949 262.5432  97.5392 14.98340425 60591,6950.161,96.106,574.075,569.976,0.0
56791.0,STARLINK-5977,PAYLOAD,2024-07-01 20:02:27,14.98322845,0.0003195,69.9999,97.1494,268.3961,91.6832,0.00025759,2.981e-05,0.0,0 STARLINK-5977,1 56791U 23078AA  24183.83503659  .00002981  00000-0  25759-3 0  9996,2 56791  69.9999  97.1494 0003195 268.3961  91.6832 14.98322845 60694,6950.215,96.107,574.301,569.859,0.0
56791.0,STARLINK-5977,PAYLOAD,2024-07-01 21:38:35,14.98323116,0.0003199,69.9999,96.9811,268.3605,91.7188,0.00025518,2.953e-05,0.0,0 STARLINK-5977,1 56791U 23078AA  24183.90179674  .00002953  00000-0  25518-3 0  9992,2 56791  69.9999  96.9811 0003199 268.3605  91.7188 14.98323116 60443,6950.214,96.107,574.303,569.856,0.0
56791.0,STARLINK-5977,PAYLOAD,2024-07-02 12:03:47,14.9832732,0.000311,70.0001,95.4645,272.8268,87.2535,0.00011116,1.233e-05,0.0,0 STARLINK-5977,1 56791U 23078AA  24184.50263833  .00001233  00000-0  11116-3 0  9999,2 56791  70.0001  95.4645 0003110 272.8268  87.2535 14.98327320 60534,6950.201,96.107,574.228,569.905,0.0
56791.0,STARLINK-5977,PAYLOAD,2024-07-02 20:04:28,14.98331446,0.0003137,70.0001,94.6231,268.9718,91.1082,-3.8807e-05,-5.56e-06,0.0,0 STARLINK-5977,1 56791U 23078AA  24184.83643902 -.00000556  00000-0 -38807-4 0  9990,2 56791  70.0001  94.6231 0003137 268.9718  91.1082 14.98331446 60840,6950.188,96.107,574.234,569.873,0.0
56791.0,STARLINK-5977,PAYLOAD,2024-07-02 21:40:36,14.98331491,0.0003134,70.0001,94.4548,268.9598,91.1202,-3.7971e-05,-5.46e-06,0.0,0 STARLINK-5977,1 56791U 23078AA  24184.90319886 -.00000546  00000-0 -37971-4 0  9999,2 56791  70.0001  94.4548 0003134 268.9598  91.1202 14.98331491 60598,6950.188,96.107,574.231,569.875,0.0
56791.0,STARLINK-5977,PAYLOAD,2024-07-03 04:05:08,14.98339639,0.0003034,69.9999,93.7815,267.6863,92.3948,-9.9481e-06,-2.12e-06,0.0,0 STARLINK-5977,1 56791U 23078AA  24185.17023167 -.00000212  00000-0 -99481-5 0  9998,2 56791  69.9999  93.7815 0003034 267.6863  92.3948 14.98339639 60895,6950.163,96.106,574.137,569.919,0.0
56791.0,STARLINK-5977,PAYLOAD,2024-07-03 20:06:28,14.98333377,0.0003023,69.9998,92.0987,268.9891,91.0921,-5.2449e-05,-7.19e-06,0.0,0 STARLINK-5977,1 56791U 23078AA  24185.83783374 -.00000719  00000-0 -52449-4 0  9998,2 56791  69.9998  92.0987 0003023 268.9891  91.0921 14.98333377 60990,6950.182,96.107,574.148,569.946,0.0
56791.0,STARLINK-5977,PAYLOAD,2024-07-03 21:42:36,14.98333135,0.0003011,69.9999,91.9305,269.1558,90.9256,-5.2387e-05,-7.18e-06,0.0,0 STARLINK-5977,1 56791U 23078AA  24185.90459375 -.00000718  00000-0 -52387-4 0  9997,2 56791  69.9999  91.9305 0003011 269.1558  90.9256 14.98333135 60747,6950.183,96.107,574.141,569.955,0.0
56791.0,STARLINK-5977,PAYLOAD,2024-07-04 10:31:41,14.98340177,0.0002965,70.0002,90.5839,270.7641,89.3178,-0.00015138,-1.899e-05,0.0,0 STARLINK-5977,1 56791U 23078AA  24186.43866987 -.00001899  00000-0 -15138-3 0  9990,2 56791  70.0002  90.5839 0002965 270.7641  89.3178 14.98340177 60828,6950.161,96.106,574.087,569.966,0.0
56791.0,STARLINK-5977,PAYLOAD,2024-07-04 20:08:29,14.98332751,0.0002891,70.0001,89.574,271.2782,88.8045,2.1623e-05,1.65e-06,0.0,0 STARLINK-5977,1 56791U 23078AA  24186.83922999  .00000165  00000-0  21623-4 0  9990,2 56791  70.0001  89.5740 0002891 271.2782  88.8045 14.98332751 61148,6950.184,96.107,574.059,570.04,0.0
56791.0,STARLINK-5977,PAYLOAD,2024-07-04 21:44:37,14.98332162,0.0002906,70.0,89.4057,271.0147,89.0679,1.5511e-05,9.2e-07,0.0,0 STARLINK-5977,1 56791U 23078AA  24186.90599036  .00000092  00000-0  15511-4 0  9998,2 56791  70.0000  89.4057 0002906 271.0147  89.0679 14.98332162 60890,6950.186,96.107,574.071,570.031,0.0
56791.0,STARLINK-5977,PAYLOAD,2024-07-05 10:33:41,14.98332906,0.0002847,70.0,88.0593,271.333,88.7502,-1.3055e-05,-2.49e-06,0.0,0 STARLINK-5977,1 56791U 23078AA  24187.44006912 -.00000249  00000-0 -13055-4 0  9991,2 56791  70.0000  88.0593 0002847 271.3330  88.7502 14.98332906 60977,6950.184,96.107,574.028,570.07,0.0
56791.0,STARLINK-5977,PAYLOAD,2024-07-05 20:10:30,14.98325496,0.0002814,70.0,87.0495,271.199,88.8847,-4.9874e-05,-6.88e-06,0.0,0 STARLINK-5977,1 56791U 23078AA  24187.84063493 -.00000688  00000-0 -49874-4 0  9997,2 56791  70.0000  87.0495 0002814 271.1990  88.8847 14.98325496 61296,6950.207,96.107,574.028,570.116,0.0
56791.0,STARLINK-5977,PAYLOAD,2024-07-05 21:46:38,14.9832529,0.000282,70.0,86.8812,271.1408,88.9428,-5.1639e-05,-7.09e-06,0.0,0 STARLINK-5977,1 56791U 23078AA  24187.90739524 -.00000709  00000-0 -51639-4 0  9995,2 56791  70.0000  86.8812 0002820 271.1408  88.9428 14.98325290 61048,6950.207,96.107,574.032,570.112,0.0
56791.0,STARLINK-5977,PAYLOAD,2024-07-06 10:35:43,14.98329293,0.0002787,70.0001,85.5347,270.0749,90.0091,1.6237e-07,-9.1e-07,0.0,0 STARLINK-5977,1 56791U 23078AA  24188.44147152 -.00000091  00000-0  16237-6 0  9995,2 56791  70.0001  85.5347 0002787 270.0749  90.0091 14.98329293 61122,6950.195,96.107,573.997,570.123,0.0
